ELYSIUM STAR 2 & LFF    
1 43760U 18099C   24277.82539267  .00223530  00000+0  46268-2 0  9993
2 43760  97.5005 347.1318 0006049 235.0127 125.0554 15.44911198319888
